start=new Date('2022-08-17T00:00:00.000Z').valueOf();
sats=[{"INCLINATION":"53.2174","RA_OF_ASC_NODE":"339.3175","OBJECT_NAME":"STARLINK-3297","MEAN_MOTION_DDOT":"0.0000000000000","REV_AT_EPOCH":"4005","CENTER_NAME":"EARTH","OBJECT_TYPE":"PAYLOAD","TIME_SYSTEM":"UTC","ELEMENT_SET_NO":"999","COUNTRY_CODE":"US","OBJECT_ID":"2021-125D","EPHEMERIS_TYPE":"0","EPOCH":"2022-08-16T17:44:45.981312","SEMIMAJOR_AXIS":"6917.868","REF_FRAME":"TEME","MEAN_ANOMALY":"301.7966","BSTAR":"0.00014533000000","LAUNCH_DATE":"2021-12-18","ECCENTRICITY":"0.00016120","MEAN_MOTION_DOT":"0.00002026","MEAN_MOTION":"15.08844181","DECAY_DATE":null,"PERIAPSIS":"538.617","APOAPSIS":"540.848","FILE":"3538178","SITE":"AFWTR","TLE_LINE2":"2 50159  53.2174 339.3175 0001612  58.3183 301.7966 15.08844181 40054","GP_ID":"210369052","RCS_SIZE":"LARGE","TLE_LINE1":"1 50159U 21125D   22228.73942108  .00002026  00000-0  14533-3 0  9990","CLASSIFICATION_TYPE":"U","ARG_OF_PERICENTER":"58.3183","PERIOD":"95.437","MEAN_ELEMENT_THEORY":"SGP4","NORAD_CAT_ID":"50159"},{"MEAN_MOTION_DOT":"0.00001076","MEAN_MOTION":"15.08844626","PERIAPSIS":"538.665","DECAY_DATE":null,"SITE":"AFWTR","APOAPSIS":"540.797","FILE":"3538178","TLE_LINE2":"2 50160  53.2158 339.2961 0001541  53.1657 306.9477 15.08844626 40069","GP_ID":"210367800","RCS_SIZE":"LARGE","TLE_LINE1":"1 50160U 21125E   22228.74678061  .00001076  00000-0  85649-4 0  9998","PERIOD":"95.437","CLASSIFICATION_TYPE":"U","ARG_OF_PERICENTER":"53.1657","MEAN_ELEMENT_THEORY":"SGP4","NORAD_CAT_ID":"50160","INCLINATION":"53.2158","RA_OF_ASC_NODE":"339.2961","MEAN_MOTION_DDOT":"0.0000000000000","OBJECT_NAME":"STARLINK-3288","TIME_SYSTEM":"UTC","REV_AT_EPOCH":"4006","CENTER_NAME":"EARTH","OBJECT_TYPE":"PAYLOAD","OBJECT_ID":"2021-125E","COUNTRY_CODE":"US","ELEMENT_SET_NO":"999","SEMIMAJOR_AXIS":"6917.866","EPOCH":"2022-08-16T17:55:21.844704","REF_FRAME":"TEME","MEAN_ANOMALY":"306.9477","EPHEMERIS_TYPE":"0","BSTAR":"0.00008564900000","ECCENTRICITY":"0.00015410","LAUNCH_DATE":"2021-12-18"},{"SITE":"AFWTR","FILE":"3538178","APOAPSIS":"540.836","TLE_LINE2":"2 50161  53.2165 339.5608 0001577  52.5869 307.5267 15.08840213 40046","MEAN_MOTION":"15.08840213","MEAN_MOTION_DOT":"0.00001270","PERIAPSIS":"538.654","DECAY_DATE":null,"PERIOD":"95.438","ARG_OF_PERICENTER":"52.5869","CLASSIFICATION_TYPE":"U","MEAN_ELEMENT_THEORY":"SGP4","NORAD_CAT_ID":"50161","RCS_SIZE":"LARGE","GP_ID":"210368550","TLE_LINE1":"1 50161U 21125F   22228.68423172  .00001270  00000-0  97890-4 0  9990","MEAN_MOTION_DDOT":"0.0000000000000","OBJECT_NAME":"STARLINK-3304","TIME_SYSTEM":"UTC","OBJECT_TYPE":"PAYLOAD","CENTER_NAME":"EARTH","REV_AT_EPOCH":"4004","RA_OF_ASC_NODE":"339.5608","INCLINATION":"53.2165","BSTAR":"0.00009789000000","ECCENTRICITY":"0.00015770","LAUNCH_DATE":"2021-12-18","ELEMENT_SET_NO":"999","COUNTRY_CODE":"US","OBJECT_ID":"2021-125F","SEMIMAJOR_AXIS":"6917.880","EPOCH":"2022-08-16T16:25:17.620608","REF_FRAME":"TEME","MEAN_ANOMALY":"307.5267","EPHEMERIS_TYPE":"0"},{"INCLINATION":"53.2014","RA_OF_ASC_NODE":"240.3622","REV_AT_EPOCH":"130","CENTER_NAME":"EARTH","OBJECT_TYPE":"PAYLOAD","TIME_SYSTEM":"UTC","OBJECT_NAME":"STARLINK-3303","MEAN_MOTION_DDOT":"0.0000000000000","EPHEMERIS_TYPE":"0","REF_FRAME":"TEME","SEMIMAJOR_AXIS":"6703.167","EPOCH":"2022-08-16T22:00:00.999936","MEAN_ANOMALY":"141.6206","OBJECT_ID":"2021-125G","COUNTRY_CODE":"US","ELEMENT_SET_NO":"999","LAUNCH_DATE":"2021-12-18","ECCENTRICITY":"0.00062610","BSTAR":"0.00057166000000","DECAY_DATE":null,"PERIAPSIS":"320.835","MEAN_MOTION_DOT":"0.00119461","MEAN_MOTION":"15.81913277","TLE_LINE2":"2 50162  53.2014 240.3622 0006261  60.3308 141.6206 15.81913277  1303","APOAPSIS":"329.229","FILE":"3538178","SITE":"AFWTR","TLE_LINE1":"1 50162U 21125G   22228.91667824  .00119461  00000-0  57166-3 0  9994","GP_ID":"210368802","RCS_SIZE":"LARGE","NORAD_CAT_ID":"50162","MEAN_ELEMENT_THEORY":"SGP4","CLASSIFICATION_TYPE":"U","ARG_OF_PERICENTER":"60.3308","PERIOD":"91.029"},{"OBJECT_TYPE":"PAYLOAD","REV_AT_EPOCH":"4029","CENTER_NAME":"EARTH","TIME_SYSTEM":"UTC","OBJECT_NAME":"STARLINK-3306","MEAN_MOTION_DDOT":"0.0000000000000","INCLINATION":"53.2181","RA_OF_ASC_NODE":"320.5165","LAUNCH_DATE":"2021-12-18","ECCENTRICITY":"0.00015570","BSTAR":"0.00004071500000","EPHEMERIS_TYPE":"0","SEMIMAJOR_AXIS":"6917.890","REF_FRAME":"TEME","EPOCH":"2022-08-16T11:16:39.788544","MEAN_ANOMALY":"295.8073","COUNTRY_CODE":"US","OBJECT_ID":"2021-125H","ELEMENT_SET_NO":"999","TLE_LINE2":"2 50163  53.2181 320.5165 0001557  64.3079 295.8073 15.08836979 40291","APOAPSIS":"540.832","FILE":"3537973","SITE":"AFWTR","DECAY_DATE":null,"PERIAPSIS":"538.678","MEAN_MOTION":"15.08836979","MEAN_MOTION_DOT":"0.00000360","NORAD_CAT_ID":"50163","MEAN_ELEMENT_THEORY":"SGP4","ARG_OF_PERICENTER":"64.3079","CLASSIFICATION_TYPE":"U","PERIOD":"95.438","TLE_LINE1":"1 50163U 21125H   22228.46990496  .00000360  00000-0  40715-4 0  9999","RCS_SIZE":"LARGE","GP_ID":"210338325"},{"PERIAPSIS":"538.729","DECAY_DATE":null,"MEAN_MOTION":"15.08853117","MEAN_MOTION_DOT":"-0.00002616","TLE_LINE2":"2 50165  53.2183 340.5294 0001411  63.4663 296.6473 15.08853117 36930","SITE":"AFWTR","FILE":"3538148","APOAPSIS":"540.681","TLE_LINE1":"1 50165U 21125K   22228.47079107 -.00002616  00000-0 -14628-3 0  9990","RCS_SIZE":"LARGE","GP_ID":"210344907","MEAN_ELEMENT_THEORY":"SGP4","NORAD_CAT_ID":"50165","PERIOD":"95.437","ARG_OF_PERICENTER":"63.4663","CLASSIFICATION_TYPE":"U","INCLINATION":"53.2183","RA_OF_ASC_NODE":"340.5294","TIME_SYSTEM":"UTC","OBJECT_TYPE":"PAYLOAD","CENTER_NAME":"EARTH","REV_AT_EPOCH":"3693","MEAN_MOTION_DDOT":"0.0000000000000","OBJECT_NAME":"STARLINK-3298","SEMIMAJOR_AXIS":"6917.840","REF_FRAME":"TEME","MEAN_ANOMALY":"296.6473","EPOCH":"2022-08-16T11:17:56.348448","EPHEMERIS_TYPE":"0","COUNTRY_CODE":"US","ELEMENT_SET_NO":"999","OBJECT_ID":"2021-125K","ECCENTRICITY":"0.00014110","LAUNCH_DATE":"2021-12-18","BSTAR":"-0.00014628000000"},{"OBJECT_NAME":"STARLINK-3305","MEAN_MOTION_DDOT":"0.0000000000000","OBJECT_TYPE":"PAYLOAD","CENTER_NAME":"EARTH","REV_AT_EPOCH":"4021","TIME_SYSTEM":"UTC","RA_OF_ASC_NODE":"328.6284","INCLINATION":"53.2182","BSTAR":"-0.00003058200000","LAUNCH_DATE":"2021-12-18","ECCENTRICITY":"0.00015950","OBJECT_ID":"2021-125L","COUNTRY_CODE":"US","ELEMENT_SET_NO":"999","EPHEMERIS_TYPE":"0","SEMIMAJOR_AXIS":"6917.861","MEAN_ANOMALY":"308.3138","EPOCH":"2022-08-16T21:23:21.358752","REF_FRAME":"TEME","FILE":"3538178","APOAPSIS":"540.830","SITE":"AFWTR","TLE_LINE2":"2 50166  53.2182 328.6284 0001595  51.7998 308.3138 15.08846186 40213","MEAN_MOTION":"15.08846186","MEAN_MOTION_DOT":"-0.00000775","DECAY_DATE":null,"PERIAPSIS":"538.623","ARG_OF_PERICENTER":"51.7998","CLASSIFICATION_TYPE":"U","PERIOD":"95.437","MEAN_ELEMENT_THEORY":"SGP4","NORAD_CAT_ID":"50166","RCS_SIZE":"LARGE","GP_ID":"210368051","TLE_LINE1":"1 50166U 21125L   22228.89121943 -.00000775  00000-0 -30582-4 0  9995"},{"SITE":"AFWTR","FILE":"3538157","APOAPSIS":"540.499","TLE_LINE2":"2 50167  53.2191 340.2641 0001229  42.9076 317.2012 15.08871615 39543","MEAN_MOTION_DOT":"-0.00009782","MEAN_MOTION":"15.08871615","PERIAPSIS":"538.799","DECAY_DATE":null,"PERIOD":"95.436","CLASSIFICATION_TYPE":"U","ARG_OF_PERICENTER":"42.9076","MEAN_ELEMENT_THEORY":"SGP4","NORAD_CAT_ID":"50167","GP_ID":"210345135","RCS_SIZE":"LARGE","TLE_LINE1":"1 50167U 21125M   22228.52966746 -.00009782  00000-0 -59685-3 0  9995","MEAN_MOTION_DDOT":"0.0000000000000","OBJECT_NAME":"STARLINK-3271","TIME_SYSTEM":"UTC","CENTER_NAME":"EARTH","REV_AT_EPOCH":"3954","OBJECT_TYPE":"PAYLOAD","INCLINATION":"53.2191","RA_OF_ASC_NODE":"340.2641","BSTAR":"-0.00059685000000","ECCENTRICITY":"0.00012290","LAUNCH_DATE":"2021-12-18","OBJECT_ID":"2021-125M","COUNTRY_CODE":"US","ELEMENT_SET_NO":"999","SEMIMAJOR_AXIS":"6917.784","MEAN_ANOMALY":"317.2012","EPOCH":"2022-08-16T12:42:43.268544","REF_FRAME":"TEME","EPHEMERIS_TYPE":"0"},{"MEAN_ELEMENT_THEORY":"SGP4","NORAD_CAT_ID":"50168","PERIOD":"95.438","ARG_OF_PERICENTER":"55.8156","CLASSIFICATION_TYPE":"U","TLE_LINE1":"1 50168U 21125N   22228.49011488  .00002355  00000-0  16604-3 0  9997","RCS_SIZE":"LARGE","GP_ID":"210338825","TLE_LINE2":"2 50168  53.2181 330.4304 0001640  55.8156 304.2991 15.08834267 40163","SITE":"AFWTR","APOAPSIS":"540.897","FILE":"3537973","PERIAPSIS":"538.628","DECAY_DATE":null,"MEAN_MOTION":"15.08834267","MEAN_MOTION_DOT":"0.00002355","ECCENTRICITY":"0.00016400","LAUNCH_DATE":"2021-12-18","BSTAR":"0.00016604000000","SEMIMAJOR_AXIS":"6917.898","EPOCH":"2022-08-16T11:45:45.925632","REF_FRAME":"TEME","MEAN_ANOMALY":"304.2991","EPHEMERIS_TYPE":"0","COUNTRY_CODE":"US","OBJECT_ID":"2021-125N","ELEMENT_SET_NO":"999","TIME_SYSTEM":"UTC","OBJECT_TYPE":"PAYLOAD","CENTER_NAME":"EARTH","REV_AT_EPOCH":"4016","MEAN_MOTION_DDOT":"0.0000000000000","OBJECT_NAME":"STARLINK-3296","INCLINATION":"53.2181","RA_OF_ASC_NODE":"330.4304"},{"SITE":"AFWTR","FILE":"3538178","APOAPSIS":"540.789","TLE_LINE2":"2 50169  53.2156 329.6896 0001502  47.9040 312.2079 15.08838599 40194","MEAN_MOTION_DOT":"0.00002569","MEAN_MOTION":"15.08838599","PERIAPSIS":"538.711","DECAY_DATE":null,"PERIOD":"95.438","CLASSIFICATION_TYPE":"U","ARG_OF_PERICENTER":"47.9040","NORAD_CAT_ID":"50169","MEAN_ELEMENT_THEORY":"SGP4","GP_ID":"210367801","RCS_SIZE":"LARGE","TLE_LINE1":"1 50169U 21125P   22228.65938832  .00002569  00000-0  17943-3 0  9991","MEAN_MOTION_DDOT":"0.0000000000000","OBJECT_NAME":"STARLINK-3301","TIME_SYSTEM":"UTC","CENTER_NAME":"EARTH","REV_AT_EPOCH":"4019","OBJECT_TYPE":"PAYLOAD","RA_OF_ASC_NODE":"329.6896","INCLINATION":"53.2156","BSTAR":"0.00017943000000","ECCENTRICITY":"0.00015020","LAUNCH_DATE":"2021-12-18","COUNTRY_CODE":"US","OBJECT_ID":"2021-125P","ELEMENT_SET_NO":"999","SEMIMAJOR_AXIS":"6917.885","MEAN_ANOMALY":"312.2079","REF_FRAME":"TEME","EPOCH":"2022-08-16T15:49:31.150848","EPHEMERIS_TYPE":"0"}];
